{
   "NEO_data": [
      {
         "id": "3655732",
         "name": "(2013 YT102)",
         "velocity": {
            "kilometers_per_second": "17.2697640557",
            "kilometers_per_hour": "62171.150600565",
            "miles_per_hour": "38630.7352162233"
         },
         "miss_distance": {
            "astronomical": "0.3389054336",
            "lunar": "131.8342136704",
            "kilometers": "50699530.997986432",
            "miles": "31503227.7380674816"
         },
         "ODD": "2021-04-15 09:10:27",
         "epoch_osculation": "2460000.5",
         "eccentricity": ".2093492207476083",
         "semi_major_axis": "1.013339361092139",
         "inclination": "12.75238180122527",
         "ascending_node_longitude": "278.2639130013272",
         "perihelion_distance": ".8011975554946201",
         "perihelion_argument": "285.9854390655233",
         "aphelion_distance": "1.225481166689657",
         "mean_anomaly": "269.5577326255806",
         "mean_motion": ".9662103949196755"
      },
      {
         "id": "3703543",
         "name": "(2015 AF44)",
         "velocity": {
            "kilometers_per_second": "24.6551451921",
            "kilometers_per_hour": "88758.5226917047",
            "miles_per_hour": "55151.0942802984"
         },
         "miss_distance": {
            "astronomical": "0.4649772222",
            "lunar": "180.8761394358",
            "kilometers": "69559602.039636714",
            "miles": "43222332.4612420932"
         },
         "ODD": "2021-04-15 12:17:29",
         "epoch_osculation": "2460000.5",
         "eccentricity": ".4376239326113645",
         "semi_major_axis": "1.460530059255101",
         "inclination": "4.824151302414944",
         "ascending_node_longitude": "297.0876415443701",
         "perihelion_distance": ".8213671510267748",
         "perihelion_argument": "110.5645817216527",
         "aphelion_distance": "2.099692967483428",
         "mean_anomaly": "241.6052638587869",
         "mean_motion": ".5583908902063596"
      },
      {
         "id": "3724110",
         "name": "(2015 NY13)",
         "velocity": {
            "kilometers_per_second": "16.2756821462",
            "kilometers_per_hour": "58592.4557264773",
            "miles_per_hour": "36407.0733929325"
         },
         "miss_distance": {
            "astronomical": "0.3197108846",
            "lunar": "124.3675341094",
            "kilometers": "47828067.351975802",
            "miles": "29718982.9649659876"
         },
         "ODD": "2021-08-06 05:57:48",
         "epoch_osculation": "2460000.5",
         "eccentricity": ".1938841799918898",
         "semi_major_axis": "1.589556106487376",
         "inclination": "32.36112572005334",
         "ascending_node_longitude": "308.4199369106398",
         "perihelion_distance": "1.28136632422997",
         "perihelion_argument": "42.74942267477279",
         "aphelion_distance": "1.897745888744782",
         "mean_anomaly": "256.7731118326079",
         "mean_motion": ".4918019894284139"
      },
      {
         "id": "3837717",
         "name": "(2019 AT6)",
         "velocity": {
            "kilometers_per_second": "17.3173235474",
            "kilometers_per_hour": "62342.3647705752",
            "miles_per_hour": "38737.1210431388"
         },
         "miss_distance": {
            "astronomical": "0.462927822",
            "lunar": "180.078922758",
            "kilometers": "69253016.13493914",
            "miles": "43031828.813834532"
         },
         "ODD": "2021-04-15 20:58:53",
         "epoch_osculation": "2460000.5",
         "eccentricity": ".1093619971309869",
         "semi_major_axis": "1.024856530436779",
         "inclination": "7.156731711175092",
         "ascending_node_longitude": "287.7364859627304",
         "perihelion_distance": ".9127761734954788",
         "perihelion_argument": "273.5781528084457",
         "aphelion_distance": "1.136936887378079",
         "mean_anomaly": "278.8691031351582",
         "mean_motion": ".9499690685629821"
      },
      {
         "id": "54101681",
         "name": "(2020 YR2)",
         "velocity": {
            "kilometers_per_second": "4.5773771487",
            "kilometers_per_hour": "16478.5577353016",
            "miles_per_hour": "10239.1349439156"
         },
         "miss_distance": {
            "astronomical": "0.3353682303",
            "lunar": "130.4582415867",
            "kilometers": "50170372.918549461",
            "miles": "31174424.1543301218"
         },
         "ODD": "2021-04-15 23:21:12",
         "epoch_osculation": "2460000.5",
         "eccentricity": ".2966648288683593",
         "semi_major_axis": "1.312177973526863",
         "inclination": "5.602255365070178",
         "ascending_node_longitude": "268.2380814267175",
         "perihelion_distance": ".9229009195656854",
         "perihelion_argument": "136.8295943895909",
         "aphelion_distance": "1.70145502748804",
         "mean_anomaly": "186.0588222260708",
         "mean_motion": ".6557147588618828"
      },
      {
         "id": "54110078",
         "name": "(2021 CT1)",
         "velocity": {
            "kilometers_per_second": "6.2673400041",
            "kilometers_per_hour": "22562.4240147685",
            "miles_per_hour": "14019.4128551766"
         },
         "miss_distance": {
            "astronomical": "0.139955009",
            "lunar": "54.442498501",
            "kilometers": "20936971.24223083",
            "miles": "13009630.665332254"
         },
         "ODD": "2023-02-10 04:53:40",
         "epoch_osculation": "2460000.5",
         "eccentricity": ".1529476953919912",
         "semi_major_axis": ".9853515385342955",
         "inclination": "8.825468843924634",
         "ascending_node_longitude": "131.1585251595573",
         "perihelion_distance": ".8346442915645221",
         "perihelion_argument": "235.4665425171621",
         "aphelion_distance": "1.136058785504069",
         "mean_anomaly": "153.2018570234524",
         "mean_motion": "1.007667555055791"
      },
      {
         "id": "2469737",
         "name": "469737 (2005 NW44)",
         "velocity": {
            "kilometers_per_second": "26.9978121279",
            "kilometers_per_hour": "97192.1236605653",
            "miles_per_hour": "60391.4059489774"
         },
         "miss_distance": {
            "astronomical": "0.4748483964",
            "lunar": "184.7160261996",
            "kilometers": "71036308.674355668",
            "miles": "44139915.4151694984"
         },
         "ODD": "2023-03-01 06:48:37",
         "epoch_osculation": "2460000.5",
         "eccentricity": ".4831887892274627",
         "semi_major_axis": ".7793227132693532",
         "inclination": "6.072911579418096",
         "ascending_node_longitude": "114.311739233227",
         "perihelion_distance": ".4027627150272734",
         "perihelion_argument": ".9066211962552084",
         "aphelion_distance": "1.155882711511433",
         "mean_anomaly": "44.87864733603616",
         "mean_motion": "1.432610312530962"
      },
      {
         "id": "3063823",
         "name": "(2000 WP19)",
         "velocity": {
            "kilometers_per_second": "12.190989312",
            "kilometers_per_hour": "43887.5615233634",
            "miles_per_hour": "27270.0239921144"
         },
         "miss_distance": {
            "astronomical": "0.3923661681",
            "lunar": "152.6304393909",
            "kilometers": "58697143.007821947",
            "miles": "36472713.4028669886"
         },
         "ODD": "2021-04-14 21:00:51",
         "epoch_osculation": "2459600.5",
         "eccentricity": ".2882870519861054",
         "semi_major_axis": ".85457226142396",
         "inclination": "7.679265520804164",
         "ascending_node_longitude": "55.67363787164673",
         "perihelion_distance": ".6082101434689472",
         "perihelion_argument": "222.1665135019034",
         "aphelion_distance": "1.100934379378973",
         "mean_anomaly": "40.46804316338424",
         "mean_motion": "1.247615857162275"
      },
      {
         "id": "3288853",
         "name": "(2005 QA5)",
         "velocity": {
            "kilometers_per_second": "2.8398539553",
            "kilometers_per_hour": "10223.4742392203",
            "miles_per_hour": "6352.4693126977"
         },
         "miss_distance": {
            "astronomical": "0.1972624864",
            "lunar": "76.7351072096",
            "kilometers": "29510047.796343968",
            "miles": "18336693.4168760384"
         },
         "ODD": "2021-04-14 22:46:12",
         "epoch_osculation": "2460000.5",
         "eccentricity": ".2111298924113474",
         "semi_major_axis": "1.389947850314268",
         "inclination": "6.801568349436228",
         "ascending_node_longitude": "93.332777170729",
         "perihelion_distance": "1.096488310220033",
         "perihelion_argument": "264.5585222271134",
         "aphelion_distance": "1.683407390408503",
         "mean_anomaly": "229.3681487471032",
         "mean_motion": ".6014593970862216"
      }
   ]
}